{
"type": "FeatureCollection",
"name": "minnesota_michigan_borders",
"crs": { "type": "name", "properties": { "name": "urn:ogc:def:crs:OGC:1.3:CRS84" } },
"features": [
{ "type": "Feature", "properties": { "id": "MI", "name": "Michigan" }, "geometry": { "type": "MultiPolygon", "coordinates": [ [ [ [ -83.454238, 41.732339 ], [ -84.807042, 41.694001 ], [ -84.807042, 41.759724 ], [ -85.990061, 41.759724 ], [ -86.822556, 41.759724 ], [ -86.619909, 41.891171 ], [ -86.482986, 42.115725 ], [ -86.357016, 42.252649 ], [ -86.263908, 42.444341 ], [ -86.209139, 42.718189 ], [ -86.231047, 43.013943 ], [ -86.526801, 43.594499 ], [ -86.433693, 43.813577 ], [ -86.499417, 44.07647 ], [ -86.269385, 44.34484 ], [ -86.220093, 44.569394 ], [ -86.252954, 44.689887 ], [ -86.088646, 44.73918 ], [ -86.066738, 44.903488 ], [ -85.809322, 44.947303 ], [ -85.612152, 45.128042 ], [ -85.628583, 44.766564 ], [ -85.524521, 44.750133 ], [ -85.393075, 44.930872 ], [ -85.387598, 45.237581 ], [ -85.305444, 45.314258 ], [ -85.031597, 45.363551 ], [ -85.119228, 45.577151 ], [ -84.938489, 45.75789 ], [ -84.713934, 45.768844 ], [ -84.461995, 45.653829 ], [ -84.215533, 45.637398 ], [ -84.09504, 45.494997 ], [ -83.908824, 45.484043 ], [ -83.596638, 45.352597 ], [ -83.4871, 45.358074 ], [ -83.317314, 45.144473 ], [ -83.454238, 45.029457 ], [ -83.322791, 44.88158 ], [ -83.273499, 44.711795 ], [ -83.333745, 44.339363 ], [ -83.536392, 44.246255 ], [ -83.585684, 44.054562 ], [ -83.82667, 43.988839 ], [ -83.958116, 43.758807 ], [ -83.908824, 43.671176 ], [ -83.667839, 43.589022 ], [ -83.481623, 43.714992 ], [ -83.262545, 43.972408 ], [ -82.917498, 44.070993 ], [ -82.747713, 43.994316 ], [ -82.643651, 43.851915 ], [ -82.539589, 43.435668 ], [ -82.523158, 43.227544 ], [ -82.413619, 42.975605 ], [ -82.517681, 42.614127 ], [ -82.681989, 42.559357 ], [ -82.687466, 42.690804 ], [ -82.797005, 42.652465 ], [ -82.922975, 42.351234 ], [ -83.125621, 42.236218 ], [ -83.185868, 42.006186 ], [ -83.437807, 41.814493 ], [ -83.454238, 41.732339 ] ] ], [ [ [ -85.508091, 45.730506 ], [ -85.49166, 45.610013 ], [ -85.623106, 45.588105 ], [ -85.568337, 45.75789 ], [ -85.508091, 45.730506 ] ] ], [ [ [ -87.589328, 45.095181 ], [ -87.742682, 45.199243 ], [ -87.649574, 45.341643 ], [ -87.885083, 45.363551 ], [ -87.791975, 45.500474 ], [ -87.781021, 45.675736 ], [ -87.989145, 45.796229 ], [ -88.10416, 45.922199 ], [ -88.531362, 46.020784 ], [ -88.662808, 45.987922 ], [ -89.09001, 46.135799 ], [ -90.119674, 46.338446 ], [ -90.229213, 46.508231 ], [ -90.415429, 46.568478 ], [ -90.026566, 46.672539 ], [ -89.851304, 46.793032 ], [ -89.413149, 46.842325 ], [ -89.128348, 46.990202 ], [ -88.996902, 46.995679 ], [ -88.887363, 47.099741 ], [ -88.575177, 47.247618 ], [ -88.416346, 47.373588 ], [ -88.180837, 47.455742 ], [ -87.956283, 47.384542 ], [ -88.350623, 47.077833 ], [ -88.443731, 46.973771 ], [ -88.438254, 46.787555 ], [ -88.246561, 46.929956 ], [ -87.901513, 46.908048 ], [ -87.633143, 46.809463 ], [ -87.392158, 46.535616 ], [ -87.260711, 46.486323 ], [ -87.008772, 46.530139 ], [ -86.948526, 46.469893 ], [ -86.696587, 46.437031 ], [ -86.159846, 46.667063 ], [ -85.880522, 46.68897 ], [ -85.508091, 46.678016 ], [ -85.256151, 46.754694 ], [ -85.064458, 46.760171 ], [ -85.02612, 46.480847 ], [ -84.82895, 46.442508 ], [ -84.63178, 46.486323 ], [ -84.549626, 46.4206 ], [ -84.418179, 46.502754 ], [ -84.127902, 46.530139 ], [ -84.122425, 46.179615 ], [ -83.990978, 46.031737 ], [ -83.793808, 45.993399 ], [ -83.7719, 46.091984 ], [ -83.580208, 46.091984 ], [ -83.476146, 45.987922 ], [ -83.563777, 45.911245 ], [ -84.111471, 45.976968 ], [ -84.374364, 45.933153 ], [ -84.659165, 46.053645 ], [ -84.741319, 45.944106 ], [ -84.70298, 45.850998 ], [ -84.82895, 45.872906 ], [ -85.015166, 46.00983 ], [ -85.338305, 46.091984 ], [ -85.502614, 46.097461 ], [ -85.661445, 45.966014 ], [ -85.924338, 45.933153 ], [ -86.209139, 45.960537 ], [ -86.324155, 45.905768 ], [ -86.351539, 45.796229 ], [ -86.663725, 45.703121 ], [ -86.647294, 45.834568 ], [ -86.784218, 45.861952 ], [ -86.838987, 45.725029 ], [ -87.069019, 45.719552 ], [ -87.17308, 45.659305 ], [ -87.326435, 45.423797 ], [ -87.611236, 45.122565 ], [ -87.589328, 45.095181 ] ] ], [ [ [ -88.805209, 47.976051 ], [ -89.057148, 47.850082 ], [ -89.188594, 47.833651 ], [ -89.177641, 47.937713 ], [ -88.547792, 48.173221 ], [ -88.668285, 48.008913 ], [ -88.805209, 47.976051 ] ] ] ] } },
{ "type": "Feature", "properties": { "id": "MN", "name": "Minnesota" }, "geometry": { "type": "Polygon", "coordinates": [ [ [ -92.014696, 46.705401 ], [ -92.091373, 46.749217 ], [ -92.29402, 46.667063 ], [ -92.29402, 46.075553 ], [ -92.354266, 46.015307 ], [ -92.639067, 45.933153 ], [ -92.869098, 45.719552 ], [ -92.885529, 45.577151 ], [ -92.770513, 45.566198 ], [ -92.644544, 45.440228 ], [ -92.75956, 45.286874 ], [ -92.737652, 45.117088 ], [ -92.808852, 44.750133 ], [ -92.545959, 44.569394 ], [ -92.337835, 44.552964 ], [ -92.233773, 44.443425 ], [ -91.927065, 44.333886 ], [ -91.877772, 44.202439 ], [ -91.592971, 44.032654 ], [ -91.43414, 43.994316 ], [ -91.242447, 43.775238 ], [ -91.269832, 43.616407 ], [ -91.215062, 43.501391 ], [ -91.368417, 43.501391 ], [ -96.451017, 43.501391 ], [ -96.451017, 45.297827 ], [ -96.681049, 45.412843 ], [ -96.856311, 45.604536 ], [ -96.582464, 45.818137 ], [ -96.560556, 45.933153 ], [ -96.598895, 46.332969 ], [ -96.719387, 46.437031 ], [ -96.801542, 46.656109 ], [ -96.785111, 46.924479 ], [ -96.823449, 46.968294 ], [ -96.856311, 47.609096 ], [ -97.053481, 47.948667 ], [ -97.130158, 48.140359 ], [ -97.16302, 48.545653 ], [ -97.097296, 48.682577 ], [ -97.228743, 49.000239 ], [ -95.152983, 49.000239 ], [ -95.152983, 49.383625 ], [ -94.955813, 49.372671 ], [ -94.824366, 49.295994 ], [ -94.69292, 48.775685 ], [ -94.588858, 48.715438 ], [ -94.260241, 48.699007 ], [ -94.221903, 48.649715 ], [ -93.838517, 48.627807 ], [ -93.794701, 48.518268 ], [ -93.466085, 48.545653 ], [ -93.466085, 48.589469 ], [ -93.208669, 48.644238 ], [ -92.984114, 48.62233 ], [ -92.726698, 48.540176 ], [ -92.655498, 48.436114 ], [ -92.50762, 48.447068 ], [ -92.370697, 48.222514 ], [ -92.304974, 48.315622 ], [ -92.053034, 48.359437 ], [ -92.009219, 48.266329 ], [ -91.713464, 48.200606 ], [ -91.713464, 48.112975 ], [ -91.565587, 48.041775 ], [ -91.264355, 48.080113 ], [ -91.083616, 48.178698 ], [ -90.837154, 48.238944 ], [ -90.749522, 48.091067 ], [ -90.579737, 48.123929 ], [ -90.377091, 48.091067 ], [ -90.141582, 48.112975 ], [ -89.873212, 47.987005 ], [ -89.615796, 48.008913 ], [ -89.637704, 47.954144 ], [ -89.971797, 47.828174 ], [ -90.437337, 47.729589 ], [ -90.738569, 47.625527 ], [ -91.171247, 47.368111 ], [ -91.357463, 47.20928 ], [ -91.642264, 47.028541 ], [ -92.091373, 46.787555 ], [ -92.014696, 46.705401 ] ] ] } }
]
}
